NORAD_CAT_ID,OBJECT_NAME,OBJECT_TYPE,EPOCH,MEAN_MOTION,ECCENTRICITY,INCLINATION,RA_OF_ASC_NODE,ARG_OF_PERICENTER,MEAN_ANOMALY,BSTAR,MEAN_MOTION_DOT,MEAN_MOTION_DDOT,TLE_LINE0,TLE_LINE1,TLE_LINE2,SEMIMAJOR_AXIS,PERIOD,APOGEE,PERIGEE,DECAYED
52687.0,STARLINK-3981,PAYLOAD,2022-09-02 12:00:02,15.08829023,0.0002352,53.2166,149.058,59.2349,143.4855,0.00052307,8.044e-05,0.0,0 STARLINK-3981,1 52687U 22053AH  22245.50002315  .00008044  00000-0  52307-3 0  9997,2 52687  53.2166 149.0580 0002352  59.2349 143.4855 15.08829023 16885,6917.9140000000025,95.438,541.406,538.1519999999998,0.0
52687.0,STARLINK-3981,PAYLOAD,2022-09-02 14:00:01,15.08811094,0.0002355,53.2164,148.6836,60.5339,235.0257,0.0029565999999999,0.00047044,0.0,0 STARLINK-3981,1 52687U 22053AH  22245.58334491  .00047044  00000-0  29566-2 0  9991,2 52687  53.2164 148.6836 0002355  60.5339 235.0257 15.08811094  1303,6917.969,95.439,541.4630000000002,538.205,0.0
52687.0,STARLINK-3981,PAYLOAD,2022-09-02 22:00:01,15.088543,0.0002478,53.2165,147.1882,59.6555,247.5466,-0.001276,-0.00020547,0.0,0 STARLINK-3981,1 52687U 22053AH  22245.91668981 -.00020547  00000-0 -12760-2 0  9991,2 52687  53.2165 147.1882 0002478  59.6555 247.5466 15.08854300  1301,6917.837,95.437,541.4159999999998,537.987,0.0
52687.0,STARLINK-3981,PAYLOAD,2022-09-03 14:00:01,15.08806038,0.0002331999999999,53.2168,144.1943,60.7597,269.6002,0.0034528,0.00055043,0.0,0 STARLINK-3981,1 52687U 22053AH  22246.58334491  .00055043  00000-0  34528-2 0  9994,2 52687  53.2168 144.1943 0002332  60.7597 269.6002 15.08806038 17041,6917.984,95.44,541.462,538.236,0.0
52687.0,STARLINK-3981,PAYLOAD,2022-09-03 22:00:00,15.08852124,0.0002458,53.2171,142.6992,59.333,282.6032,-0.0011010999999999,-0.00017776,0.0,0 STARLINK-3981,1 52687U 22053AH  22246.91667824 -.00017776  00000-0 -11011-2 0  9995,2 52687  53.2171 142.6992 0002458  59.3330 282.6032 15.08852124  1307,6917.843000000003,95.437,541.409,538.008,0.0
52687.0,STARLINK-3981,PAYLOAD,2022-09-04 06:00:00,15.08861117,0.0002452,53.217,141.2032,55.9781,297.559,-0.00089992,-0.00014591,0.0,0 STARLINK-3981,1 52687U 22053AH  22247.25001157 -.00014591  00000-0 -89992-3 0  9990,2 52687  53.2170 141.2032 0002452  55.9781 297.5590 15.08861117 17147,6917.816,95.436,541.377,537.985,0.0
52687.0,STARLINK-3981,PAYLOAD,2022-09-04 12:00:00,15.08821758,0.0002536,53.2175,140.0838,57.782,214.5071,-0.0080324,-0.00125846,0.0,0 STARLINK-3981,1 52687U 22053AH  22247.50001157 -.00125846  00000-0 -80324-2 0  9993,2 52687  53.2175 140.0838 0002536  57.7820 214.5071 15.08821758 17184,6917.936,95.439,541.556,538.047,0.0
52687.0,STARLINK-3981,PAYLOAD,2022-09-04 14:00:01,15.08661276,0.0002541,53.2172,139.7098,61.8114,303.4733,0.011854,0.00192631,0.0,0 STARLINK-3981,1 52687U 22053AH  22247.58335648  .00192631  00000-0  11854-1 0  9991,2 52687  53.2172 139.7098 0002541  61.8114 303.4733 15.08661276  1309,6918.427,95.449,542.05,538.534,0.0
52687.0,STARLINK-3981,PAYLOAD,2022-09-04 16:00:00,15.08847538,0.000227,53.2176,139.3309,59.8641,38.2275,-0.0010014,-0.00016194,0.0,0 STARLINK-3981,1 52687U 22053AH  22247.66667824 -.00016194  00000-0 -10014-2 0  9993,2 52687  53.2176 139.3309 0002270  59.8641  38.2275 15.08847538 17213,6917.857,95.437,541.293,538.1519999999998,0.0
52687.0,STARLINK-3981,PAYLOAD,2022-09-04 20:00:01,15.08843214,0.0002262,53.2177,138.5837,57.3652,226.5259,-0.00096911,-0.0001568,0.0,0 STARLINK-3981,1 52687U 22053AH  22247.83334491 -.00015680  00000-0 -96911-3 0  9993,2 52687  53.2177 138.5837 0002262  57.3652 226.5259 15.08843214  1301,6917.871,95.437,541.3,538.1709999999998,0.0
52687.0,STARLINK-3981,PAYLOAD,2022-09-05 12:00:00,15.08808868,0.0002101,53.218,135.5905,56.351000000000006,250.74,0.0029206999999999,0.00046462,0.0,0 STARLINK-3981,1 52687U 22053AH  22248.50001157  .00046462  00000-0  29207-2 0  9991,2 52687  53.2180 135.5905 0002101  56.3510 250.7400 15.08808868 17335,6917.976,95.44,541.294,538.387,0.0
52687.0,STARLINK-3981,PAYLOAD,2022-09-05 14:00:01,15.08810455,0.0002051,53.2179,135.2162,57.2235,342.7619,0.0032454,0.000517,0.0,0 STARLINK-3981,1 52687U 22053AH  22248.58334491  .00051700  00000-0  32454-2 0  9998,2 52687  53.2179 135.2162 0002051  57.2235 342.7619 15.08810455  1302,6917.971,95.439,541.255,538.4169999999998,0.0
52687.0,STARLINK-3981,PAYLOAD,2022-09-05 20:00:01,15.08855966,0.0002106999999999,53.2183,134.095,55.5761,263.0832,-0.0036503,-0.00057943,0.0,0 STARLINK-3981,1 52687U 22053AH  22248.83334491 -.00057943  00000-0 -36503-2 0  9992,2 52687  53.2183 134.0950 0002107  55.5761 263.0832 15.08855966 17389,6917.831999999999,95.437,541.154,538.239,0.0
52687.0,STARLINK-3981,PAYLOAD,2022-09-05 22:00:00,15.08837494,0.000215,53.2181,133.7215,53.8806,357.6826,-0.0022105,-0.00035295,0.0,0 STARLINK-3981,1 52687U 22053AH  22248.91667824 -.00035295  00000-0 -22105-2 0  9999,2 52687  53.2181 133.7215 0002150  53.8806 357.6826 15.08837494  1300,6917.888000000001,95.438,541.24,538.266,0.0
52687.0,STARLINK-3981,PAYLOAD,2022-09-06 04:00:00,15.08809092,0.0002136,53.218,132.5997,49.8793,280.3674,0.001961,0.00031033,0.0,0 STARLINK-3981,1 52687U 22053AH  22249.16667824  .00031033  00000-0  19610-2 0  9998,2 52687  53.2180 132.5997 0002136  49.8793 280.3674 15.08809092 17434,6917.975,95.44,541.318,538.362,0.0
52687.0,STARLINK-3981,PAYLOAD,2022-09-06 12:00:00,15.08796015,0.0001916,53.2182,131.1018,55.0888,286.7404,0.00097821,0.00015296,0.0,0 STARLINK-3981,1 52687U 22053AH  22249.50001157  .00015296  00000-0  97821-3 0  9991,2 52687  53.2182 131.1018 0001916  55.0888 286.7404 15.08796015 17480,6918.015,95.44,541.205,538.554,0.0
52687.0,STARLINK-3981,PAYLOAD,2022-09-06 14:00:01,15.08783885,0.0001875,53.2181,130.7275,55.9106,18.8102,0.0027275,0.00043321,0.0,0 STARLINK-3981,1 52687U 22053AH  22249.58334491  .00043321  00000-0  27275-2 0  9994,2 52687  53.2181 130.7275 0001875  55.9106  18.8102 15.08783885  1309,6918.052,95.441,541.214,538.62,0.0
52687.0,STARLINK-3981,PAYLOAD,2022-09-06 22:00:00,15.08815804,0.0002029999999999,53.2181,129.233,52.6513,33.6142,-0.00088471,-0.00014332,0.0,0 STARLINK-3981,1 52687U 22053AH  22249.91667824 -.00014332  00000-0 -88471-3 0  9998,2 52687  53.2181 129.2330 0002030  52.6513  33.6142 15.08815804  1300,6917.954000000002,95.439,541.224,538.415,0.0
52687.0,STARLINK-3981,PAYLOAD,2022-09-07 14:00:01,15.08805529,0.0001898,53.2179,126.2391,58.1558,51.2417,0.0030013,0.00047757,0.0,0 STARLINK-3981,1 52687U 22053AH  22250.58334491  .00047757  00000-0  30013-2 0  9997,2 52687  53.2179 126.2391 0001898  58.1558  51.2417 15.08805529 17651,6917.986,95.44,541.164,538.538,0.0
52687.0,STARLINK-3981,PAYLOAD,2022-09-07 22:00:00,15.08835521,0.0002052,53.2177,124.7446,54.596,66.3721,-0.00069493,-0.0001133,0.0,0 STARLINK-3981,1 52687U 22053AH  22250.91667824 -.00011330  00000-0 -69493-3 0  9998,2 52687  53.2177 124.7446 0002052  54.5960  66.3721 15.08835521  1308,6917.894,95.438,541.179,538.34,0.0
52687.0,STARLINK-3981,PAYLOAD,2022-09-08 06:00:00,15.08850839,0.0002045999999999,53.2173,123.248,53.3849,79.1652,-0.00080841,-0.00013135,0.0,0 STARLINK-3981,1 52687U 22053AH  22251.25001157 -.00013135  00000-0 -80841-3 0  9992,2 52687  53.2173 123.2480 0002046  53.3849  79.1652 15.08850839 17752,6917.847,95.437,541.128,538.297,0.0
52687.0,STARLINK-3981,PAYLOAD,2022-09-08 14:00:01,15.08831709,0.0001949,53.2173,121.7503,60.1901,83.9629,0.0025661,0.00040779,0.0,0 STARLINK-3981,1 52687U 22053AH  22251.58334491  .00040779  00000-0  25661-2 0  9998,2 52687  53.2173 121.7503 0001949  60.1901  83.9629 15.08831709  1303,6917.906,95.438,541.119,538.422,0.0
52687.0,STARLINK-3981,PAYLOAD,2022-09-08 22:00:00,15.08861287,0.0002088,53.2172,120.2557,55.4566,100.2976,-0.0014045,-0.00022585,0.0,0 STARLINK-3981,1 52687U 22053AH  22251.91667824 -.00022585  00000-0 -14045-2 0  9995,2 52687  53.2172 120.2557 0002088  55.4566 100.2976 15.08861287  1306,6917.815,95.436,541.125,538.236,0.0
52687.0,STARLINK-3981,PAYLOAD,2022-09-09 06:00:00,15.08858803,0.0002004,53.2169,118.7588,53.4486,113.9157,-0.0024043,-0.0003836999999999,0.0,0 STARLINK-3981,1 52687U 22053AH  22252.25001157 -.00038370  00000-0 -24043-2 0  9992,2 52687  53.2169 118.7588 0002004  53.4486 113.9157 15.08858803 17900,6917.823,95.436,541.0740000000002,538.302,0.0
52687.0,STARLINK-3981,PAYLOAD,2022-09-09 14:00:01,15.08832928,0.0001906999999999,53.2169,117.2612,59.4367,119.5349,0.0024483,0.00038885,0.0,0 STARLINK-3981,1 52687U 22053AH  22252.58334491  .00038885  00000-0  24483-2 0  9995,2 52687  53.2169 117.2612 0001907  59.4367 119.5349 15.08832928  1309,6917.901999999999,95.438,541.086,538.448,0.0
52687.0,STARLINK-3981,PAYLOAD,2022-09-09 20:00:01,15.08865717,0.0002002,53.2168,116.1403,55.5594,42.1103,-0.0013978,-0.00022481,0.0,0 STARLINK-3981,1 52687U 22053AH  22252.83334491 -.00022481  00000-0 -13978-2 0  9997,2 52687  53.2168 116.1403 0002002  55.5594  42.1103 15.08865717 17993,6917.802,95.436,541.052,538.2819999999998,0.0
52687.0,STARLINK-3981,PAYLOAD,2022-09-09 22:00:00,15.08859527,0.0002045999999999,53.2168,115.7666,54.0217,136.5541,-0.00085688,-0.00013907,0.0,0 STARLINK-3981,1 52687U 22053AH  22252.91667824 -.00013907  00000-0 -85688-3 0  9996,2 52687  53.2168 115.7666 0002046  54.0217 136.5541 15.08859527  1307,6917.821,95.436,541.101,538.27,0.0
52687.0,STARLINK-3981,PAYLOAD,2022-09-10 14:00:01,15.08836771,0.0001826,53.2168,112.7718,57.041,156.7374,-0.00059027,-9.669e-05,0.0,0 STARLINK-3981,1 52687U 22053AH  22253.58334491 -.00009669  00000-0 -59027-3 0  9999,2 52687  53.2168 112.7718 0001826  57.0410 156.7374 15.08836771  1309,6917.89,95.438,541.018,538.492,0.0
52687.0,STARLINK-3981,PAYLOAD,2022-09-10 22:00:00,15.08816826,0.000198,53.2168,111.2771,50.5467,174.82,0.0005518,8.499e-05,0.0,0 STARLINK-3981,1 52687U 22053AH  22253.91667824  .00008499  00000-0  55180-3 0  9999,2 52687  53.2168 111.2771 0001980  50.5467 174.8200 15.08816826  1301,6917.951,95.439,541.186,538.446,0.0
